[{"norad_id":"57844","company":"STARLINK","tle_line2":"2 57844  53.1583 356.9695 0001269  85.0326 275.0820 15.30213372126055","launch_date":"2023-09-12","type":"LEO","tle_line1":"1 57844U 23141E   25340.42134348  .00042138  00000+0  14262-2 0  9996","satellite_name":"STARLINK-30292"},{"norad_id":"57847","company":"STARLINK","tle_line2":"2 57847  53.1623 357.8028 0001372  82.0250 278.0907 15.30194043126031","launch_date":"2023-09-12","type":"LEO","tle_line1":"1 57847U 23141H   25340.33501990  .00001218  00000+0  53271-4 0  9999","satellite_name":"STARLINK-30416"},{"norad_id":"57848","company":"STARLINK","tle_line2":"2 57848  53.1588 357.7028 0001175  85.4642 274.6493 15.30202537126034","launch_date":"2023-09-12","type":"LEO","tle_line1":"1 57848U 23141J   25340.35187576  .00010383  00000+0  36217-3 0  9995","satellite_name":"STARLINK-30426"},{"norad_id":"57849","company":"STARLINK","tle_line2":"2 57849  53.1631 359.0403 0001415 102.0292 258.0868 15.30183165125991","launch_date":"2023-09-12","type":"LEO","tle_line1":"1 57849U 23141K   25340.07060846  .00000184  00000+0  18360-4 0  9993","satellite_name":"STARLINK-30430"},{"norad_id":"57850","company":"STARLINK","tle_line2":"2 57850  53.1590 357.7276 0001048  93.6707 266.4413 15.30190963126037","launch_date":"2023-09-12","type":"LEO","tle_line1":"1 57850U 23141L   25340.35504257  .00003992  00000+0  14688-3 0  9993","satellite_name":"STARLINK-30425"},{"norad_id":"57851","company":"STARLINK","tle_line2":"2 57851  53.1594 357.8107 0002721  99.1388 260.9920 15.30218244126036","launch_date":"2023-09-12","type":"LEO","tle_line1":"1 57851U 23141M   25340.33818373  .00008207  00000+0  28875-3 0  9996","satellite_name":"STARLINK-30405"},{"norad_id":"57852","company":"STARLINK","tle_line2":"2 57852  53.1600 356.9954 0001242  89.9146 270.1997 15.30194503126040","launch_date":"2023-09-12","type":"LEO","tle_line1":"1 57852U 23141N   25340.42661294  .00000980  00000+0  45217-4 0  9995","satellite_name":"STARLINK-30431"},{"norad_id":"57853","company":"STARLINK","tle_line2":"2 57853  53.1608 357.2725 0001609 112.4745 247.6427 15.30199115126044","launch_date":"2023-09-12","type":"LEO","tle_line1":"1 57853U 23141P   25340.35707401 -.00000343  00000+0  56111-6 0  9990","satellite_name":"STARLINK-30404"},{"norad_id":"57854","company":"STARLINK","tle_line2":"2 57854  53.1593 357.0353 0001237 107.9455 252.1681 15.30210244126058","launch_date":"2023-09-12","type":"LEO","tle_line1":"1 57854U 23141Q   25340.43294406  .00012781  00000+0  44277-3 0  9991","satellite_name":"STARLINK-30412"},{"norad_id":"57855","company":"STARLINK","tle_line2":"2 57855  53.1614 358.8340 0001105 109.6760 250.4360 15.30195294125994","launch_date":"2023-09-12","type":"LEO","tle_line1":"1 57855U 23141R   25340.03788956 -.00000448  00000+0 -30055-5 0  9996","satellite_name":"STARLINK-30392"},{"norad_id":"57856","company":"STARLINK","tle_line2":"2 57856  53.1613 357.7612 0001466  99.4454 260.6713 15.30205287126035","launch_date":"2023-09-12","type":"LEO","tle_line1":"1 57856U 23141S   25340.32236679  .00012212  00000+0  42369-3 0  9998","satellite_name":"STARLINK-30291"},{"norad_id":"57857","company":"STARLINK","tle_line2":"2 57857  53.1606 332.1030 0001287  94.0768 266.0380 15.30208179126380","launch_date":"2023-09-12","type":"LEO","tle_line1":"1 57857U 23141T   25340.25799036  .00018189  00000+0  62458-3 0  9992","satellite_name":"STARLINK-30424"},{"norad_id":"57858","company":"STARLINK","tle_line2":"2 57858  53.1641 357.0700 0000815 155.3918 204.7122 15.30192148126059","launch_date":"2023-09-12","type":"LEO","tle_line1":"1 57858U 23141U   25340.43926399 -.00000857  00000+0 -16843-4 0  9990","satellite_name":"STARLINK-30290"},{"norad_id":"57859","company":"STARLINK","tle_line2":"2 57859  53.1630 358.8698 0001065 139.4672 220.6409 15.30180884125992","launch_date":"2023-09-12","type":"LEO","tle_line1":"1 57859U 23141V   25340.04423718 -.00001109  00000+0 -25346-4 0  9994","satellite_name":"STARLINK-30414"},{"norad_id":"57860","company":"STARLINK","tle_line2":"2 57860  53.1630 357.7773 0001707 108.5732 251.5454 15.30181040126037","launch_date":"2023-09-12","type":"LEO","tle_line1":"1 57860U 23141W   25340.32553117  .00002718  00000+0  10394-3 0  9995","satellite_name":"STARLINK-30272"},{"norad_id":"57864","company":"STARLINK","tle_line2":"2 57864  43.0045  74.0516 0001207 273.9885  86.0820 15.02550073123551","launch_date":"2023-09-16","type":"LEO","tle_line1":"1 57864U 23144A   25340.54088155 -.00000117  00000+0  64098-5 0  9995","satellite_name":"STARLINK-30432"},{"norad_id":"57865","company":"STARLINK","tle_line2":"2 57865  43.0018  74.0199 0001344 262.1948  97.8742 15.02538539123557","launch_date":"2023-09-16","type":"LEO","tle_line1":"1 57865U 23144B   25340.53755871  .00002460  00000+0  19708-3 0  9999","satellite_name":"STARLINK-30427"},{"norad_id":"57866","company":"STARLINK","tle_line2":"2 57866  43.0044  72.8794 0001167 275.9938  84.0771 15.02532458123574","launch_date":"2023-09-16","type":"LEO","tle_line1":"1 57866U 23144C   25340.61390476  .00001755  00000+0  14498-3 0  9992","satellite_name":"STARLINK-30393"},{"norad_id":"57867","company":"STARLINK","tle_line2":"2 57867  43.0037  74.0053 0001221 273.9544  86.1159 15.02531801123609","launch_date":"2023-09-16","type":"LEO","tle_line1":"1 57867U 23144D   25340.53422588 -.00001296  00000+0 -80872-4 0  9996","satellite_name":"STARLINK-30439"},{"norad_id":"57868","company":"STARLINK","tle_line2":"2 57868  43.0032  73.9357 0001396 270.6961  89.3722 15.02530948123556","launch_date":"2023-09-16","type":"LEO","tle_line1":"1 57868U 23144E   25340.53088996 -.00000869  00000+0 -49249-4 0  9996","satellite_name":"STARLINK-30442"},{"norad_id":"57869","company":"STARLINK","tle_line2":"2 57869  43.0032  74.0228 0001097 239.7665 120.3068 15.02538466123553","launch_date":"2023-09-16","type":"LEO","tle_line1":"1 57869U 23144F   25340.54420628  .00000424  00000+0  46489-4 0  9998","satellite_name":"STARLINK-30441"},{"norad_id":"57870","company":"STARLINK","tle_line2":"2 57870  43.0030  73.9526 0001177 257.7619 102.3092 15.02535935123601","launch_date":"2023-09-16","type":"LEO","tle_line1":"1 57870U 23144G   25340.52757469 -.00002854  00000+0 -19626-3 0  9997","satellite_name":"STARLINK-30460"},{"norad_id":"57871","company":"STARLINK","tle_line2":"2 57871  43.0032  74.9833 0001500 268.0784  91.9886 15.02535671123290","launch_date":"2023-09-16","type":"LEO","tle_line1":"1 57871U 23144H   25340.32147749  .00001886  00000+0  15465-3 0  9999","satellite_name":"STARLINK-30444"},{"norad_id":"57872","company":"STARLINK","tle_line2":"2 57872  43.0022  61.9051 0000883 274.1316  85.9425 15.02545539123443","launch_date":"2023-09-16","type":"LEO","tle_line1":"1 57872U 23144J   25340.28180988  .00000991  00000+0  88419-4 0  9993","satellite_name":"STARLINK-30446"},{"norad_id":"57873","company":"STARLINK","tle_line2":"2 57873  43.0035  75.0152 0001444 266.4822  93.5855 15.02533203123522","launch_date":"2023-09-16","type":"LEO","tle_line1":"1 57873U 23144K   25340.32480885 -.00000227  00000+0 -17004-5 0  9995","satellite_name":"STARLINK-30445"},{"norad_id":"57874","company":"STARLINK","tle_line2":"2 57874  43.0035  47.6859 0001167 266.2210  93.8499 15.02531794123905","launch_date":"2023-09-16","type":"LEO","tle_line1":"1 57874U 23144L   25340.62451008  .00001510  00000+0  12683-3 0  9994","satellite_name":"STARLINK-30447"},{"norad_id":"57875","company":"STARLINK","tle_line2":"2 57875  43.0043  74.9355 0002296 270.9291  89.1288 15.02569908123579","launch_date":"2023-09-16","type":"LEO","tle_line1":"1 57875U 23144M   25340.31481172 -.00006531  00000+0 -46835-3 0  9992","satellite_name":"STARLINK-30434"},{"norad_id":"57876","company":"STARLINK","tle_line2":"2 57876  42.9999  73.4623 0001154 268.3389  91.7321 15.02573394123606","launch_date":"2023-09-16","type":"LEO","tle_line1":"1 57876U 23144N   25340.57738523 -.00006390  00000+0 -45795-3 0  9993","satellite_name":"STARLINK-30429"},{"norad_id":"57877","company":"STARLINK","tle_line2":"2 57877  43.0039  35.8749 0001628 270.4612  89.6044 15.02532327124020","launch_date":"2023-09-16","type":"LEO","tle_line1":"1 57877U 23144P   25340.43532828 -.00000794  00000+0 -43691-4 0  9995","satellite_name":"STARLINK-30284"},{"norad_id":"57878","company":"STARLINK","tle_line2":"2 57878  43.0041  73.4407 0001155 275.1441  84.9269 15.02551065123600","launch_date":"2023-09-16","type":"LEO","tle_line1":"1 57878U 23144Q   25340.57406456 -.00001072  00000+0 -64257-4 0  9999","satellite_name":"STARLINK-30433"},{"norad_id":"57879","company":"STARLINK","tle_line2":"2 57879  43.0066  73.4234 0001234 271.2950  88.7751 15.02538500123603","launch_date":"2023-09-16","type":"LEO","tle_line1":"1 57879U 23144R   25340.57184379 -.00000268  00000+0 -47325-5 0  9991","satellite_name":"STARLINK-30358"},{"norad_id":"57880","company":"STARLINK","tle_line2":"2 57880  43.0038  73.0035 0001893 263.3624  96.7003 15.02534138123613","launch_date":"2023-09-16","type":"LEO","tle_line1":"1 57880U 23144S   25340.63055309  .00000596  00000+0  59231-4 0  9990","satellite_name":"STARLINK-30436"},{"norad_id":"57882","company":"STARLINK","tle_line2":"2 57882  43.0035  72.9778 0001474 276.8444  83.2230 15.02543224123617","launch_date":"2023-09-16","type":"LEO","tle_line1":"1 57882U 23144U   25340.62722385 -.00000989  00000+0 -58116-4 0  9995","satellite_name":"STARLINK-30339"},{"norad_id":"57883","company":"STARLINK","tle_line2":"2 57883  43.0042  73.2984 0001341 272.5596  87.5093 15.02537038123602","launch_date":"2023-09-16","type":"LEO","tle_line1":"1 57883U 23144V   25340.55519543  .00000493  00000+0  51536-4 0  9995","satellite_name":"STARLINK-30282"},{"norad_id":"57884","company":"STARLINK","tle_line2":"2 57884  43.0017  72.8906 0000953 219.5462 140.5311 15.02533763123610","launch_date":"2023-09-16","type":"LEO","tle_line1":"1 57884U 23144W   25340.61723795  .00000636  00000+0  62179-4 0  9993","satellite_name":"STARLINK-30340"}]